ONEWEB-0512             
1 54130U 22138T   25093.57093396  .00000046  00000+0  82180-4 0  9992
2 54130  87.9246  32.3637 0002287  72.8522 287.2861 13.19726161118821
ONEWEB-0513             
1 54131U 22138U   25093.30543493  .00000102  00000+0  21997-3 0  9993
2 54131  87.9245  32.3996 0002365  76.1298 284.0098 13.20256113118670
ONEWEB-0514             
1 54132U 22138V   25093.58672825 -.00000033  00000+0 -11454-3 0  9998
2 54132  87.9242  32.3325 0001946  80.8950 279.2402 13.19724817118848
ONEWEB-0515             
1 54133U 22138W   25093.50220044  .00000172  00000+0  39136-3 0  9992
2 54133  87.9331   1.9351 0001023  75.4232 284.7015 13.20769085121267
ONEWEB-0516             
1 54134U 22138X   25093.56145315  .00000041  00000+0  70839-4 0  9997
2 54134  87.9248  32.3682 0001907  75.1959 284.9385 13.19724228118844
ONEWEB-0517             
1 54135U 22138Y   25093.54091010 -.00000042  00000+0 -13602-3 0  9995
2 54135  87.9229  32.3377 0001844  86.9735 273.1609 13.19730970118847
ONEWEB-0518             
1 54136U 22138Z   25093.33242565  .00000221  00000+0  51880-3 0  9993
2 54136  87.9246  32.4098 0002012  80.0408 280.0951 13.19724685118818
ONEWEB-0519             
1 54137U 22138AA  25093.28187867  .00000154  00000+0  35358-3 0  9998
2 54137  87.9238  32.3816 0002139  83.2460 276.8916 13.19724655118811
